SWARM A                 
1 39452U 13067B   26183.76808977  .00010985  00000+0  18692-3 0  9993
2 39452  87.3304  50.4504 0003230  96.7690 263.3938 15.51250384708668
SWARM C                 
1 39453U 13067C   26183.76799014  .00010989  00000+0  18700-3 0  9999
2 39453  87.3303  49.0312 0003204  96.8010 263.3615 15.51249270708627
BRITE-CA1 (TORONTO)     
1 40020U 14033L   26183.80085422  .00001167  00000+0  18267-3 0  9997
2 40020  97.9759 312.4427 0077610 226.2184 133.2586 14.72703454644518
OCO 2                   
1 40059U 14035A   26183.81208002  .00000486  00000+0  11787-3 0  9996
2 40059  98.2019 124.8673 0001489  82.0449 278.0919 14.57124289638320
BRITE-PL2 (HEWELIUSZ)   
1 40119U 14049B   26183.83815573  .00002043  00000+0  19367-3 0  9990
2 40119  97.9112 295.9600 0015069  60.8674 299.4052 14.94651278643785
MMS 1                   
1 40482U 15011A   26183.83336806 -.00000924  00000+0  00000+0 0  9997
2 40482  72.3341 348.5884 8316617 167.6753  94.9172  0.28325016  1399
MMS 2                   
1 40483U 15011B   26183.83336806 -.00000925  00000+0  00000+0 0  9999
2 40483  72.3437 348.5849 8319519 167.6803  94.8997  0.28324381  1395
MMS 3                   
1 40484U 15011C   26183.83336806 -.00000924  00000+0  00000+0 0  9999
2 40484  72.3376 348.5993 8317794 167.6859  94.8809  0.28324992  1392
MMS 4                   
1 40485U 15011D   26183.83336806 -.00000924  00000+0  00000+0 0  9990
2 40485  72.3338 348.5826 8317708 167.6957  94.8747  0.28325009  1391
ASTROSAT                
1 40930U 15052A   26183.16059860  .00001744  00000+0  13029-3 0  9997
2 40930   5.9977  47.5602 0008564 250.6263 109.2939 14.82533398582055
DAMPE                   
1 41173U 15078A   26183.85652666  .00001619  00000+0  56870-4 0  9997
2 41173  97.4554 189.4005 0012894  28.0550 332.1383 15.30827010586945
PISAT                   
1 41784U 16059B   26183.46991318  .00001126  00000+0  19878-3 0  9991
2 41784  97.8182 183.2661 0029647 153.9873 206.2831 14.69011061521988
HXMT (HUIYAN)           
1 42758U 17034A   26183.85488993  .00005258  00000+0  25752-3 0  9998
2 42758  43.0144  95.7923 0032743 245.6784 114.0644 15.18595345500049
FLYING LAPTOP           
1 42831U 17042G   26183.84956780  .00006406  00000+0  50080-3 0  9990
2 42831  97.4759 338.7866 0019994  71.7378 288.6020 15.01250832488808
ZHANGHENG 1-01 (CSES-1) 
1 43194U 18015C   26183.86330942  .00008234  00000+0  37277-3 0  9996
2 43194  97.6885 349.8346 0017763 208.6001 151.4261 15.21019003467025
SALSAT                  
1 46495U 20068K   26183.25417132  .00008637  00000+0  29987-3 0  9990
2 46495  97.8847 187.2381 0008038 243.7769 116.2645 15.30013367317667
IXPE                    
1 49954U 21121A   26183.83336806  .00015577  00000+0  86354-3 0  9998
2 49954   0.2291 199.3466 0007402 314.3757 346.9059 15.10398172  5826
SMILE                   
1 69123U 26109A   26158.38327019 -.00000041  00000+0 -36778-3 0  9994
2 69123  69.9787 209.3069 3310191 288.5544  45.7342  7.54049028  2480
